[{"OBJECT_NAME":"UHETSAT","OBJECT_ID":"2023-185E","EPOCH":"2026-03-09T22:39:26.455680","MEAN_MOTION":15.29797662,"ECCENTRICITY":0.00118435,"INCLINATION":97.3584,"RA_OF_ASC_NODE":137.3576,"ARG_OF_PERICENTER":307.7346,"MEAN_ANOMALY":52.2821,"EPHEMERIS_TYPE":0,"CLASSIFICATION_TYPE":"U","NORAD_CAT_ID":58466,"ELEMENT_SET_NO":999,"REV_AT_EPOCH":12611,"BSTAR":0.00030513019,"MEAN_MOTION_DOT":8.749e-5,"MEAN_MOTION_DDOT":0},{"OBJECT_NAME":"STARLINK-36463","OBJECT_ID":"2026-002L","EPOCH":"2026-03-09T02:45:48.896064","MEAN_MOTION":15.27591974,"ECCENTRICITY":0.00015516,"INCLINATION":43.0035,"RA_OF_ASC_NODE":328.287,"ARG_OF_PERICENTER":278.2259,"MEAN_ANOMALY":81.8417,"EPHEMERIS_TYPE":0,"CLASSIFICATION_TYPE":"U","NORAD_CAT_ID":67315,"ELEMENT_SET_NO":999,"REV_AT_EPOCH":1105,"BSTAR":0.00079769983,"MEAN_MOTION_DOT":0.00021762,"MEAN_MOTION_DDOT":0}]
